{
  "type": "FeatureCollection",
  "features": [
    {
      "type": "Feature",
      "geometry": {
        "type": "LineString",
        "coordinates": [
          [
            -16.701305,
            32.743127,
            60.958777
          ],
          [
            -16.701315,
            32.743083,
            60.958777
          ],
          [
            -16.701171,
            32.743118,
            60.958777
          ],
          [
            -16.701191,
            32.743146,
            60.958777
          ],
          [
            -16.701199,
            32.743174,
            60.958777
          ],
          [
            -16.701196,
            32.743202,
            60.958777
          ],
          [
            -16.701183,
            32.743229,
            60.958777
          ],
          [
            -16.70116,
            32.743251,
            60.958777
          ],
          [
            -16.70113,
            32.743266,
            60.958777
          ],
          [
            -16.701096,
            32.743272,
            60.958777
          ],
          [
            -16.701044,
            32.743265,
            60.958777
          ],
          [
            -16.700927,
            32.743411,
            60.958777
          ],
          [
            -16.700926,
            32.743415,
            60.958777
          ],
          [
            -16.700861,
            32.74358,
            60.958777
          ],
          [
            -16.700777,
            32.743762,
            60.771437
          ],
          [
            -16.700803,
            32.743803,
            60.649908
          ],
          [
            -16.70087,
            32.743809,
            60.50169
          ],
          [
            -16.700886,
            32.743833,
            60.429727
          ],
          [
            -16.700733,
            32.743884,
            60.067695
          ],
          [
            -16.700678,
            32.744008,
            59.721557
          ],
          [
            -16.700637,
            32.744126,
            59.400036
          ],
          [
            -16.700661,
            32.744446,
            58.561457
          ],
          [
            -16.700664,
            32.744654,
            58.017422
          ],
          [
            -16.700664,
            32.744665,
            57.988653
          ],
          [
            -16.700578,
            32.745151,
            56.703587
          ],
          [
            -16.70035,
            32.745455,
            56.11767
          ],
          [
            -16.700209,
            32.74565,
            55.951156
          ],
          [
            -16.699915,
            32.745853,
            55.717739
          ],
          [
            -16.699379,
            32.745988,
            55.374397
          ],
          [
            -16.699243,
            32.746044,
            55.281478
          ],
          [
            -16.69902,
            32.746163,
            55.119418
          ],
          [
            -16.698935,
            32.746185,
            55.064844
          ],
          [
            -16.698776,
            32.74626,
            54.952979
          ],
          [
            -16.698632,
            32.746391,
            54.037305
          ],
          [
            -16.698098,
            32.746889,
            50.334444
          ],
          [
            -16.698037,
            32.746988,
            49.718762
          ],
          [
            -16.697933,
            32.747026,
            49.192175
          ],
          [
            -16.697679,
            32.74723,
            47.561162
          ],
          [
            -16.697528,
            32.747389,
            46.437545
          ],
          [
            -16.697521,
            32.747481,
            45.928519
          ],
          [
            -16.69756,
            32.74753,
            45.602935
          ],
          [
            -16.697615,
            32.747606,
            45.111673
          ],
          [
            -16.697715,
            32.747917,
            42.260176
          ],
          [
            -16.697756,
            32.747974,
            41.657239
          ],
          [
            -16.697853,
            32.748048,
            40.660379
          ],
          [
            -16.69781,
            32.7481,
            40.087121
          ],
          [
            -16.69763,
            32.748408,
            36.98103
          ],
          [
            -16.697487,
            32.74871,
            34.039002
          ],
          [
            -16.697277,
            32.748368,
            30.555332
          ],
          [
            -16.696963,
            32.748109,
            28.672102
          ],
          [
            -16.696956,
            32.748031,
            28.644112
          ],
          [
            -16.696648,
            32.747662,
            28.482782
          ],
          [
            -16.696558,
            32.747554,
            28.435589
          ],
          [
            -16.69642,
            32.747542,
            28.393835
          ],
          [
            -16.696558,
            32.747554,
            28.352081
          ],
          [
            -16.696648,
            32.747662,
            28.304888
          ],
          [
            -16.696956,
            32.748031,
            28.143558
          ],
          [
            -16.696963,
            32.748109,
            28.115567
          ],
          [
            -16.697277,
            32.748368,
            31.380966
          ],
          [
            -16.697487,
            32.74871,
            35.676274
          ],
          [
            -16.697462,
            32.748754,
            36.220458
          ],
          [
            -16.697406,
            32.748733,
            36.795917
          ],
          [
            -16.697234,
            32.748767,
            38.454192
          ],
          [
            -16.697108,
            32.748698,
            39.865333
          ],
          [
            -16.696967,
            32.748708,
            41.193371
          ],
          [
            -16.69683,
            32.74872,
            42.486125
          ],
          [
            -16.696641,
            32.74867,
            44.345648
          ],
          [
            -16.696453,
            32.748584,
            46.354206
          ],
          [
            -16.696124,
            32.748511,
            49.628954
          ],
          [
            -16.6961,
            32.748508,
            49.870021
          ],
          [
            -16.696205,
            32.748797,
            53.439792
          ],
          [
            -16.696004,
            32.749175,
            58.331294
          ],
          [
            -16.695901,
            32.74929,
            60.032085
          ],
          [
            -16.695866,
            32.749386,
            61.218243
          ],
          [
            -16.695662,
            32.750282,
            69.885665
          ],
          [
            -16.695542,
            32.750368,
            70.17521
          ],
          [
            -16.695345,
            32.750432,
            70.563063
          ],
          [
            -16.695153,
            32.75044,
            70.916112
          ],
          [
            -16.69497,
            32.750411,
            71.258113
          ],
          [
            -16.694778,
            32.750339,
            71.644193
          ],
          [
            -16.69469,
            32.750349,
            71.807277
          ],
          [
            -16.694646,
            32.750374,
            71.904798
          ],
          [
            -16.694635,
            32.750411,
            71.988081
          ],
          [
            -16.694582,
            32.750475,
            72.158392
          ],
          [
            -16.694499,
            32.75052,
            72.339753
          ],
          [
            -16.694452,
            32.75051,
            72.428789
          ],
          [
            -16.694274,
            32.750434,
            72.795407
          ],
          [
            -16.69405,
            32.750429,
            73.206938
          ],
          [
            -16.693895,
            32.750503,
            73.306217
          ],
          [
            -16.69405,
            32.750429,
            73.258979
          ],
          [
            -16.693849,
            32.750245,
            73.180239
          ],
          [
            -16.6937,
            32.750039,
            73.104255
          ],
          [
            -16.693682,
            32.74935,
            72.887079
          ],
          [
            -16.693596,
            32.749186,
            72.830595
          ],
          [
            -16.693551,
            32.748925,
            72.890731
          ],
          [
            -16.69347,
            32.748816,
            73.130699
          ],
          [
            -16.693442,
            32.748675,
            73.397578
          ],
          [
            -16.693363,
            32.748621,
            73.557422
          ],
          [
            -16.693126,
            32.748694,
            73.953721
          ],
          [
            -16.692723,
            32.748886,
            74.680967
          ],
          [
            -16.692602,
            32.748918,
            74.880127
          ],
          [
            -16.692531,
            32.748904,
            74.994631
          ],
          [
            -16.692431,
            32.748928,
            75.157915
          ],
          [
            -16.692099,
            32.748944,
            75.680062
          ],
          [
            -16.692053,
            32.748908,
            75.778722
          ],
          [
            -16.692075,
            32.748849,
            75.894159
          ],
          [
            -16.691996,
            32.748756,
            76.107539
          ],
          [
            -16.691962,
            32.748608,
            73.886759
          ],
          [
            -16.69174,
            32.748367,
            69.038554
          ],
          [
            -16.691702,
            32.74824,
            66.955933
          ],
          [
            -16.691668,
            32.748109,
            64.823615
          ],
          [
            -16.691675,
            32.747866,
            60.95811
          ],
          [
            -16.691759,
            32.747598,
            56.55057
          ],
          [
            -16.691744,
            32.747535,
            55.528805
          ],
          [
            -16.691675,
            32.747453,
            53.931241
          ],
          [
            -16.691004,
            32.747181,
            43.836649
          ],
          [
            -16.690821,
            32.747004,
            39.968157
          ],
          [
            -16.690601,
            32.746631,
            33.101125
          ],
          [
            -16.690541,
            32.746639,
            32.258451
          ],
          [
            -16.690271,
            32.746572,
            28.353581
          ],
          [
            -16.690288,
            32.746536,
            27.714737
          ],
          [
            -16.690252,
            32.746523,
            27.171287
          ],
          [
            -16.690269,
            32.746491,
            26.593241
          ],
          [
            -16.690187,
            32.746434,
            25.117595
          ],
          [
            -16.689829,
            32.746253,
            19.32348
          ],
          [
            -16.68957,
            32.746154,
            19.363307
          ],
          [
            -16.689366,
            32.74612,
            21.112614
          ],
          [
            -16.689318,
            32.746078,
            21.695234
          ],
          [
            -16.689134,
            32.746057,
            23.257132
          ],
          [
            -16.688944,
            32.745972,
            25.067329
          ],
          [
            -16.688494,
            32.745897,
            28.926104
          ],
          [
            -16.68838,
            32.745886,
            29.891305
          ],
          [
            -16.688272,
            32.745854,
            30.854469
          ],
          [
            -16.687962,
            32.745943,
            33.609761
          ],
          [
            -16.687883,
            32.746049,
            34.860906
          ],
          [
            -16.687716,
            32.746145,
            36.294308
          ],
          [
            -16.687591,
            32.746294,
            37.43505
          ],
          [
            -16.687494,
            32.746342,
            38.02718
          ],
          [
            -16.687404,
            32.746341,
            38.500744
          ],
          [
            -16.687188,
            32.74628,
            39.69955
          ],
          [
            -16.68705,
            32.74613,
            40.885989
          ],
          [
            -16.686715,
            32.745935,
            43.029492
          ],
          [
            -16.686689,
            32.745843,
            43.621035
          ],
          [
            -16.686709,
            32.745706,
            44.484478
          ],
          [
            -16.686686,
            32.745591,
            45.213971
          ],
          [
            -16.686218,
            32.744865,
            41.06454
          ],
          [
            -16.686145,
            32.744833,
            40.268314
          ],
          [
            -16.686136,
            32.744742,
            39.218213
          ],
          [
            -16.686231,
            32.744665,
            37.942114
          ],
          [
            -16.686274,
            32.744428,
            35.185097
          ],
          [
            -16.686443,
            32.744034,
            30.368303
          ],
          [
            -16.686426,
            32.7439,
            28.818574
          ],
          [
            -16.686494,
            32.743772,
            27.206328
          ],
          [
            -16.686226,
            32.743638,
            26.384088
          ],
          [
            -16.686025,
            32.74308,
            26.294155
          ],
          [
            -16.685942,
            32.742993,
            26.27695
          ],
          [
            -16.68586,
            32.742905,
            26.259704
          ],
          [
            -16.685816,
            32.74276,
            26.236621
          ],
          [
            -16.68577,
            32.742696,
            26.225086
          ],
          [
            -16.685665,
            32.742721,
            26.210928
          ],
          [
            -16.685281,
            32.742607,
            26.158097
          ],
          [
            -16.683947,
            32.742201,
            36.220385
          ],
          [
            -16.683712,
            32.742164,
            38.14603
          ],
          [
            -16.683334,
            32.742243,
            41.283146
          ],
          [
            -16.683198,
            32.742261,
            42.392014
          ],
          [
            -16.683092,
            32.742317,
            43.380939
          ],
          [
            -16.682964,
            32.74235,
            43.943097
          ],
          [
            -16.682859,
            32.742346,
            44.384447
          ],
          [
            -16.682727,
            32.742436,
            45.097952
          ],
          [
            -16.682607,
            32.742545,
            45.839573
          ],
          [
            -16.682325,
            32.74264,
            47.115141
          ],
          [
            -16.682211,
            32.742704,
            47.690662
          ],
          [
            -16.682041,
            32.742745,
            48.43326
          ],
          [
            -16.681938,
            32.742803,
            48.953735
          ],
          [
            -16.681851,
            32.742889,
            49.517455
          ],
          [
            -16.68185,
            32.742917,
            49.657301
          ],
          [
            -16.681939,
            32.742922,
            50.031845
          ],
          [
            -16.682044,
            32.742983,
            50.567686
          ],
          [
            -16.682162,
            32.743167,
            51.61137
          ],
          [
            -16.682373,
            32.7432,
            52.444602
          ],
          [
            -16.682706,
            32.743383,
            53.46017
          ],
          [
            -16.683114,
            32.743696,
            54.870043
          ],
          [
            -16.683426,
            32.743994,
            56.075341
          ],
          [
            -16.683483,
            32.744081,
            56.376866
          ],
          [
            -16.683608,
            32.744185,
            56.825759
          ],
          [
            -16.68367,
            32.74421,
            57.001301
          ],
          [
            -16.683733,
            32.744236,
            57.180464
          ],
          [
            -16.683933,
            32.744444,
            57.806965
          ],
          [
            -16.684067,
            32.744428,
            57.821411
          ],
          [
            -16.684135,
            32.744448,
            57.829099
          ],
          [
            -16.684191,
            32.744496,
            57.837633
          ],
          [
            -16.684578,
            32.744648,
            57.883219
          ],
          [
            -16.68473,
            32.744685,
            57.900107
          ],
          [
            -16.685095,
            32.744872,
            57.945722
          ],
          [
            -16.685413,
            32.744871,
            57.979662
          ],
          [
            -16.685509,
            32.744903,
            57.990684
          ],
          [
            -16.685752,
            32.744913,
            58.01665
          ],
          [
            -16.686071,
            32.74488,
            57.003976
          ],
          [
            -16.686145,
            32.744833,
            56.579283
          ],
          [
            -16.686218,
            32.744865,
            56.202263
          ],
          [
            -16.686686,
            32.745591,
            51.705309
          ],
          [
            -16.686709,
            32.745706,
            51.070304
          ],
          [
            -16.686689,
            32.745843,
            50.318698
          ],
          [
            -16.686715,
            32.745935,
            49.803774
          ],
          [
            -16.68705,
            32.74613,
            47.444271
          ],
          [
            -16.687188,
            32.74628,
            44.683816
          ],
          [
            -16.687404,
            32.746341,
            41.894587
          ],
          [
            -16.687494,
            32.746342,
            40.792759
          ],
          [
            -16.687591,
            32.746294,
            39.415066
          ],
          [
            -16.687716,
            32.746145,
            36.760933
          ],
          [
            -16.687883,
            32.746049,
            34.284734
          ],
          [
            -16.687962,
            32.745943,
            32.463904
          ],
          [
            -16.688272,
            32.745854,
            28.454041
          ],
          [
            -16.68838,
            32.745886,
            27.052318
          ],
          [
            -16.688494,
            32.745897,
            25.647631
          ],
          [
            -16.688944,
            32.745972,
            22.536338
          ],
          [
            -16.689134,
            32.746057,
            23.163879
          ],
          [
            -16.689318,
            32.746078,
            23.705342
          ],
          [
            -16.689366,
            32.74612,
            23.907319
          ],
          [
            -16.68957,
            32.746154,
            24.513751
          ],
          [
            -16.689829,
            32.746253,
            25.343333
          ],
          [
            -16.690187,
            32.746434,
            26.561354
          ],
          [
            -16.690269,
            32.746491,
            26.87156
          ],
          [
            -16.690252,
            32.746523,
            26.993075
          ],
          [
            -16.690288,
            32.746536,
            27.107318
          ],
          [
            -16.690271,
            32.746572,
            27.241614
          ],
          [
            -16.690541,
            32.746639,
            28.062484
          ],
          [
            -16.690601,
            32.746631,
            28.239628
          ],
          [
            -16.690821,
            32.747004,
            37.006141
          ],
          [
            -16.691004,
            32.747181,
            42.095119
          ],
          [
            -16.691675,
            32.747453,
            55.687116
          ],
          [
            -16.691744,
            32.747535,
            57.866635
          ],
          [
            -16.691759,
            32.747598,
            59.260603
          ],
          [
            -16.691675,
            32.747866,
            65.273705
          ],
          [
            -16.691668,
            32.748109,
            68.057517
          ],
          [
            -16.691702,
            32.74824,
            68.726933
          ],
          [
            -16.69174,
            32.748367,
            69.380747
          ],
          [
            -16.691962,
            32.748608,
            70.902784
          ],
          [
            -16.691996,
            32.748756,
            71.655337
          ],
          [
            -16.692075,
            32.748849,
            72.225959
          ],
          [
            -16.692053,
            32.748908,
            72.534661
          ],
          [
            -16.692099,
            32.748944,
            72.798498
          ],
          [
            -16.692431,
            32.748928,
            74.194827
          ],
          [
            -16.692531,
            32.748904,
            74.631481
          ],
          [
            -16.692602,
            32.748918,
            74.937688
          ],
          [
            -16.692723,
            32.748886,
            75.470283
          ],
          [
            -16.693126,
            32.748694,
            75.750615
          ],
          [
            -16.693363,
            32.748621,
            75.238306
          ],
          [
            -16.693442,
            32.748675,
            75.031671
          ],
          [
            -16.69347,
            32.748816,
            74.686667
          ],
          [
            -16.693551,
            32.748925,
            74.376453
          ],
          [
            -16.693596,
            32.749186,
            73.739965
          ],
          [
            -16.693682,
            32.74935,
            73.307381
          ],
          [
            -16.6937,
            32.750039,
            72.032506
          ],
          [
            -16.693849,
            32.750245,
            72.184284
          ],
          [
            -16.69405,
            32.750429,
            72.341566
          ],
          [
            -16.694274,
            32.750434,
            72.460194
          ],
          [
            -16.694452,
            32.75051,
            72.565875
          ],
          [
            -16.694499,
            32.75052,
            72.591541
          ],
          [
            -16.694582,
            32.750475,
            72.64382
          ],
          [
            -16.694635,
            32.750411,
            72.692914
          ],
          [
            -16.694646,
            32.750374,
            72.716921
          ],
          [
            -16.69469,
            32.750349,
            72.745032
          ],
          [
            -16.694778,
            32.750339,
            72.792043
          ],
          [
            -16.69497,
            32.750411,
            72.903334
          ],
          [
            -16.695153,
            32.75044,
            73.001919
          ],
          [
            -16.695345,
            32.750432,
            72.797416
          ],
          [
            -16.695542,
            32.750368,
            71.138712
          ],
          [
            -16.695662,
            32.750282,
            69.900431
          ],
          [
            -16.695866,
            32.749386,
            61.380887
          ],
          [
            -16.695901,
            32.74929,
            60.443168
          ],
          [
            -16.696004,
            32.749175,
            59.098603
          ],
          [
            -16.696205,
            32.748797,
            55.457083
          ],
          [
            -16.6961,
            32.748508,
            53.237737
          ],
          [
            -16.696124,
            32.748511,
            53.087864
          ],
          [
            -16.696453,
            32.748584,
            50.986155
          ],
          [
            -16.696641,
            32.74867,
            49.66426
          ],
          [
            -16.69683,
            32.74872,
            48.44045
          ],
          [
            -16.696967,
            32.748708,
            47.589648
          ],
          [
            -16.697108,
            32.748698,
            46.715625
          ],
          [
            -16.697234,
            32.748767,
            45.786909
          ],
          [
            -16.697406,
            32.748733,
            44.695546
          ],
          [
            -16.697462,
            32.748754,
            44.316819
          ],
          [
            -16.697487,
            32.74871,
            43.958674
          ],
          [
            -16.69763,
            32.748408,
            43.91522
          ],
          [
            -16.69781,
            32.7481,
            45.316493
          ],
          [
            -16.697853,
            32.748048,
            45.575111
          ],
          [
            -16.697756,
            32.747974,
            46.024831
          ],
          [
            -16.697715,
            32.747917,
            46.296838
          ],
          [
            -16.697615,
            32.747606,
            47.612273
          ],
          [
            -16.69756,
            32.74753,
            47.975544
          ],
          [
            -16.697521,
            32.747481,
            48.216301
          ],
          [
            -16.697528,
            32.747389,
            48.592708
          ],
          [
            -16.697679,
            32.74723,
            49.423582
          ],
          [
            -16.697933,
            32.747026,
            50.571966
          ],
          [
            -16.698037,
            32.746988,
            50.853372
          ],
          [
            -16.698098,
            32.746889,
            51.18239
          ],
          [
            -16.698632,
            32.746391,
            53.161187
          ],
          [
            -16.698776,
            32.74626,
            53.687622
          ],
          [
            -16.698935,
            32.746185,
            54.140045
          ],
          [
            -16.69902,
            32.746163,
            54.360759
          ],
          [
            -16.699243,
            32.746044,
            55.016189
          ],
          [
            -16.699379,
            32.745988,
            55.39199
          ],
          [
            -16.699915,
            32.745853,
            56.129819
          ],
          [
            -16.700209,
            32.74565,
            56.489681
          ],
          [
            -16.70035,
            32.745455,
            56.746399
          ],
          [
            -16.700578,
            32.745151,
            57.150694
          ],
          [
            -16.700664,
            32.744665,
            57.703377
          ],
          [
            -16.700664,
            32.744654,
            57.71575
          ],
          [
            -16.700661,
            32.744446,
            57.752068
          ],
          [
            -16.700637,
            32.744126,
            57.752068
          ],
          [
            -16.700678,
            32.744008,
            57.752068
          ],
          [
            -16.700733,
            32.743884,
            57.752068
          ],
          [
            -16.700886,
            32.743833,
            57.752068
          ],
          [
            -16.70087,
            32.743809,
            57.752068
          ],
          [
            -16.700803,
            32.743803,
            57.752068
          ],
          [
            -16.700777,
            32.743762,
            57.752068
          ],
          [
            -16.700861,
            32.74358,
            57.752068
          ],
          [
            -16.700927,
            32.743411,
            57.752068
          ],
          [
            -16.701044,
            32.743265,
            57.752068
          ],
          [
            -16.701096,
            32.743272,
            57.752068
          ],
          [
            -16.70113,
            32.743266,
            57.752068
          ],
          [
            -16.70116,
            32.743251,
            57.752068
          ],
          [
            -16.701183,
            32.743229,
            57.752068
          ],
          [
            -16.701196,
            32.743202,
            57.752068
          ],
          [
            -16.701199,
            32.743174,
            57.752068
          ],
          [
            -16.701191,
            32.743146,
            57.752068
          ],
          [
            -16.701171,
            32.743118,
            57.752068
          ],
          [
            -16.701315,
            32.743083,
            57.752068
          ],
          [
            -16.701305,
            32.743127,
            57.752068
          ]
        ]
      },
      "properties": {
        "route_id": "D3-PR8",
        "name": "D3 PR8 Sao Lourenco exact Komoot GPX",
        "full_name": "D3 PR8 Vereda da Ponta de Sao Lourenco",
        "geometry_mode": "route",
        "source": "Komoot GPX export",
        "distance_m": 6721,
        "ascent_m": 174,
        "descent_m": 177,
        "track_points": 330,
        "note": "Komoot GPX export for the exact PR8 primary route: Baia d'Abra -> Casa do Sardinha / Sao Lourenco route -> return. Boat-return remains outside the default route object."
      }
    },
    {
      "type": "Feature",
      "geometry": {
        "type": "Point",
        "coordinates": [
          -16.701429,
          32.743124
        ]
      },
      "properties": {
        "route_id": "D3-PR8",
        "point_index": 0,
        "point_role": "start",
        "name": "Baía d'Abra",
        "description": "Komoot waypoint: Flag, Blue"
      }
    },
    {
      "type": "Feature",
      "geometry": {
        "type": "Point",
        "coordinates": [
          -16.700642,
          32.74401
        ]
      },
      "properties": {
        "route_id": "D3-PR8",
        "point_index": 1,
        "point_role": "via",
        "name": "Zatoka d'Abra",
        "description": "Komoot waypoint: Flag, Blue"
      }
    },
    {
      "type": "Feature",
      "geometry": {
        "type": "Point",
        "coordinates": [
          -16.696423,
          32.747547
        ]
      },
      "properties": {
        "route_id": "D3-PR8",
        "point_index": 2,
        "point_role": "via",
        "name": "Baía d'Abra — żwirowa plaża",
        "description": "Komoot waypoint: Flag, Blue"
      }
    },
    {
      "type": "Feature",
      "geometry": {
        "type": "Point",
        "coordinates": [
          -16.693913,
          32.750494
        ]
      },
      "properties": {
        "route_id": "D3-PR8",
        "point_index": 3,
        "point_role": "via",
        "name": "Punkt widokowy Ponta de São Lourenço",
        "description": "Komoot waypoint: Flag, Blue"
      }
    },
    {
      "type": "Feature",
      "geometry": {
        "type": "Point",
        "coordinates": [
          -16.68183,
          32.74292
        ]
      },
      "properties": {
        "route_id": "D3-PR8",
        "point_index": 4,
        "point_role": "end",
        "name": "Widok na Ponta de São Lourenço",
        "description": "Komoot waypoint: Flag, Blue"
      }
    }
  ]
}
