{
  "type": "FeatureCollection",
  "features": [
    {
      "type": "Feature",
      "geometry": {
        "type": "LineString",
        "coordinates": [
          [
            -16.886498,
            32.734875,
            896.757214
          ],
          [
            -16.886447,
            32.734927,
            896.757214
          ],
          [
            -16.886487,
            32.734952,
            896.757214
          ],
          [
            -16.886307,
            32.73514,
            896.757214
          ],
          [
            -16.886236,
            32.735246,
            896.757214
          ],
          [
            -16.886237,
            32.73536,
            896.757214
          ],
          [
            -16.886287,
            32.735371,
            896.757214
          ],
          [
            -16.886323,
            32.73541,
            896.757214
          ],
          [
            -16.886643,
            32.735857,
            897.280567
          ],
          [
            -16.886697,
            32.736157,
            897.806885
          ],
          [
            -16.886836,
            32.73642,
            898.306142
          ],
          [
            -16.886904,
            32.73663,
            898.683683
          ],
          [
            -16.886868,
            32.736799,
            898.981502
          ],
          [
            -16.886902,
            32.736849,
            899.081419
          ],
          [
            -16.887004,
            32.73687,
            899.23464
          ],
          [
            -16.887148,
            32.736864,
            899.445008
          ],
          [
            -16.887256,
            32.736818,
            899.621641
          ],
          [
            -16.88733,
            32.736752,
            899.77901
          ],
          [
            -16.887575,
            32.73668,
            899.359705
          ],
          [
            -16.887661,
            32.7365,
            898.738919
          ],
          [
            -16.887934,
            32.736393,
            897.928207
          ],
          [
            -16.888004,
            32.736154,
            897.140525
          ],
          [
            -16.888041,
            32.736153,
            897.040877
          ],
          [
            -16.888105,
            32.736211,
            896.787644
          ],
          [
            -16.888133,
            32.736238,
            896.672989
          ],
          [
            -16.888157,
            32.736306,
            896.445998
          ],
          [
            -16.888149,
            32.736351,
            896.300395
          ],
          [
            -16.888083,
            32.736685,
            895.216913
          ],
          [
            -16.887942,
            32.737138,
            893.022759
          ],
          [
            -16.887763,
            32.73739,
            890.461757
          ],
          [
            -16.887565,
            32.737541,
            888.500491
          ],
          [
            -16.887376,
            32.737642,
            886.857321
          ],
          [
            -16.887315,
            32.737837,
            885.098214
          ],
          [
            -16.887553,
            32.738074,
            882.39168
          ],
          [
            -16.888194,
            32.738298,
            877.551084
          ],
          [
            -16.888438,
            32.738457,
            875.792443
          ],
          [
            -16.888591,
            32.738663,
            874.147113
          ],
          [
            -16.88858,
            32.738821,
            873.075018
          ],
          [
            -16.888501,
            32.738956,
            872.055777
          ],
          [
            -16.888254,
            32.739115,
            870.283601
          ],
          [
            -16.888291,
            32.739241,
            869.404452
          ],
          [
            -16.888288,
            32.739329,
            868.808112
          ],
          [
            -16.888217,
            32.739445,
            867.92433
          ],
          [
            -16.887857,
            32.739584,
            866.545142
          ],
          [
            -16.887697,
            32.739815,
            867.480252
          ],
          [
            -16.887504,
            32.740018,
            868.389422
          ],
          [
            -16.887292,
            32.740148,
            869.161297
          ],
          [
            -16.886909,
            32.740286,
            870.387147
          ],
          [
            -16.886851,
            32.74036,
            870.697169
          ],
          [
            -16.886827,
            32.74045,
            871.01979
          ],
          [
            -16.886845,
            32.740602,
            871.554082
          ],
          [
            -16.887037,
            32.740647,
            872.140479
          ],
          [
            -16.887255,
            32.740662,
            873.427636
          ],
          [
            -16.887588,
            32.740897,
            878.045506
          ],
          [
            -16.887956,
            32.740986,
            882.113386
          ],
          [
            -16.888256,
            32.741022,
            885.332735
          ],
          [
            -16.888375,
            32.741004,
            886.617221
          ],
          [
            -16.888534,
            32.74088,
            888.920709
          ],
          [
            -16.888685,
            32.740842,
            890.595133
          ],
          [
            -16.888838,
            32.74086,
            892.236368
          ],
          [
            -16.889027,
            32.741032,
            895.194547
          ],
          [
            -16.889044,
            32.741037,
            895.27537
          ],
          [
            -16.889145,
            32.741071,
            895.457064
          ],
          [
            -16.88927,
            32.741112,
            895.681145
          ],
          [
            -16.8895,
            32.741101,
            896.065901
          ],
          [
            -16.889751,
            32.74119,
            896.520836
          ],
          [
            -16.889797,
            32.741237,
            896.641715
          ],
          [
            -16.889999,
            32.741344,
            897.040411
          ],
          [
            -16.89009,
            32.741426,
            897.263144
          ],
          [
            -16.890223,
            32.741489,
            897.518075
          ],
          [
            -16.89029,
            32.741541,
            897.670334
          ],
          [
            -16.890309,
            32.741598,
            897.787879
          ],
          [
            -16.89029,
            32.741541,
            897.905424
          ],
          [
            -16.890223,
            32.741489,
            898.057682
          ],
          [
            -16.89009,
            32.741426,
            898.312614
          ],
          [
            -16.889999,
            32.741344,
            898.535346
          ],
          [
            -16.889797,
            32.741237,
            898.385729
          ],
          [
            -16.889751,
            32.74119,
            897.892088
          ],
          [
            -16.8895,
            32.741101,
            896.034248
          ],
          [
            -16.88927,
            32.741112,
            894.463001
          ],
          [
            -16.889145,
            32.741071,
            893.547911
          ],
          [
            -16.889044,
            32.741037,
            892.805919
          ],
          [
            -16.889027,
            32.741032,
            892.683087
          ],
          [
            -16.888838,
            32.74086,
            890.783893
          ],
          [
            -16.888685,
            32.740842,
            889.730197
          ],
          [
            -16.888534,
            32.74088,
            888.655193
          ],
          [
            -16.888375,
            32.741004,
            887.176321
          ],
          [
            -16.888256,
            32.741022,
            886.351662
          ],
          [
            -16.887956,
            32.740986,
            884.284795
          ],
          [
            -16.887588,
            32.740897,
            880.617154
          ],
          [
            -16.887255,
            32.740662,
            876.433366
          ],
          [
            -16.887037,
            32.740647,
            874.328106
          ],
          [
            -16.886845,
            32.740602,
            872.409703
          ],
          [
            -16.886827,
            32.74045,
            870.661762
          ],
          [
            -16.886851,
            32.74036,
            869.606304
          ],
          [
            -16.886909,
            32.740286,
            868.592064
          ],
          [
            -16.887292,
            32.740148,
            864.58168
          ],
          [
            -16.887504,
            32.740018,
            864.422222
          ],
          [
            -16.887697,
            32.739815,
            865.83739
          ],
          [
            -16.887857,
            32.739584,
            867.292934
          ],
          [
            -16.888217,
            32.739445,
            869.106961
          ],
          [
            -16.888288,
            32.739329,
            869.817301
          ],
          [
            -16.888291,
            32.739241,
            870.296609
          ],
          [
            -16.888254,
            32.739115,
            871.003226
          ],
          [
            -16.888501,
            32.738956,
            872.427613
          ],
          [
            -16.88858,
            32.738821,
            873.246828
          ],
          [
            -16.888591,
            32.738663,
            874.388858
          ],
          [
            -16.888438,
            32.738457,
            876.276082
          ],
          [
            -16.888194,
            32.738298,
            878.293274
          ],
          [
            -16.887553,
            32.738074,
            882.829648
          ],
          [
            -16.887315,
            32.737837,
            885.240085
          ],
          [
            -16.887376,
            32.737642,
            886.806744
          ],
          [
            -16.887565,
            32.737541,
            888.187031
          ],
          [
            -16.887763,
            32.73739,
            889.761539
          ],
          [
            -16.887942,
            32.737138,
            891.817516
          ],
          [
            -16.888083,
            32.736685,
            895.097142
          ],
          [
            -16.888157,
            32.736306,
            897.787115
          ],
          [
            -16.888133,
            32.736238,
            898.283913
          ],
          [
            -16.888105,
            32.736211,
            898.534851
          ],
          [
            -16.888041,
            32.736153,
            899.089083
          ],
          [
            -16.888004,
            32.736154,
            899.307174
          ],
          [
            -16.887934,
            32.736393,
            899.725494
          ],
          [
            -16.887661,
            32.7365,
            899.199141
          ],
          [
            -16.887575,
            32.73668,
            898.796096
          ],
          [
            -16.88733,
            32.736752,
            898.342548
          ],
          [
            -16.887256,
            32.736818,
            898.15406
          ],
          [
            -16.887148,
            32.736864,
            897.942499
          ],
          [
            -16.887004,
            32.73687,
            897.690532
          ],
          [
            -16.886902,
            32.736849,
            897.507013
          ],
          [
            -16.886868,
            32.736799,
            897.387338
          ],
          [
            -16.886904,
            32.73663,
            897.030626
          ],
          [
            -16.886836,
            32.73642,
            896.578429
          ],
          [
            -16.886697,
            32.736157,
            896.287278
          ],
          [
            -16.886643,
            32.735857,
            896.287278
          ],
          [
            -16.886323,
            32.73541,
            896.287278
          ],
          [
            -16.886287,
            32.735371,
            896.287278
          ],
          [
            -16.886237,
            32.73536,
            896.287278
          ],
          [
            -16.886236,
            32.735246,
            896.287278
          ],
          [
            -16.886307,
            32.73514,
            896.287278
          ],
          [
            -16.886487,
            32.734952,
            896.287278
          ],
          [
            -16.886447,
            32.734927,
            896.287278
          ],
          [
            -16.886498,
            32.734875,
            896.287278
          ]
        ]
      },
      "properties": {
        "route_id": "D5-PR11",
        "name": "D5 PR11 Balcoes exact Komoot GPX",
        "full_name": "D5 PR11 Vereda dos Balcoes",
        "geometry_mode": "route",
        "source": "Komoot GPX export",
        "distance_m": 2884,
        "ascent_m": 70,
        "descent_m": 71,
        "track_points": 142,
        "note": "Komoot GPX export for the exact PR11 primary route: Ribeiro Frio -> Balcoes viewpoint -> return."
      }
    },
    {
      "type": "Feature",
      "geometry": {
        "type": "Point",
        "coordinates": [
          -16.886514,
          32.734886
        ]
      },
      "properties": {
        "route_id": "D5-PR11",
        "point_index": 0,
        "point_role": "start",
        "name": "RIB Frio-Viveiro Trutas",
        "description": "Komoot waypoint: Flag, Blue"
      }
    },
    {
      "type": "Feature",
      "geometry": {
        "type": "Point",
        "coordinates": [
          -16.886409,
          32.734948
        ]
      },
      "properties": {
        "route_id": "D5-PR11",
        "point_index": 1,
        "point_role": "via",
        "name": "Pstrągarnia i restauracja Ribeiro Frio",
        "description": "Komoot waypoint: Restaurant"
      }
    },
    {
      "type": "Feature",
      "geometry": {
        "type": "Point",
        "coordinates": [
          -16.888164,
          32.736353
        ]
      },
      "properties": {
        "route_id": "D5-PR11",
        "point_index": 2,
        "point_role": "via",
        "name": "Szlak Vereda dos Balcões",
        "description": "Komoot waypoint: Flag, Blue"
      }
    },
    {
      "type": "Feature",
      "geometry": {
        "type": "Point",
        "coordinates": [
          -16.890308,
          32.741563
        ]
      },
      "properties": {
        "route_id": "D5-PR11",
        "point_index": 3,
        "point_role": "end",
        "name": "Widok z Miradouro dos Balcões",
        "description": "Komoot waypoint: Flag, Blue"
      }
    }
  ]
}
